[{"OBJECT_NAME":"NOAA 18","OBJECT_ID":"2005-018A","EPOCH":"2026-03-10T04:17:27.100032","MEAN_MOTION":14.13711009,"ECCENTRICITY":0.0015276,"INCLINATION":98.8155,"RA_OF_ASC_NODE":150.2792,"ARG_OF_PERICENTER":74.1831,"MEAN_ANOMALY":286.1024,"EPHEMERIS_TYPE":0,"CLASSIFICATION_TYPE":"U","NORAD_CAT_ID":28654,"ELEMENT_SET_NO":999,"REV_AT_EPOCH":7232,"BSTAR":5.4841e-5,"MEAN_MOTION_DOT":6.0e-7,"MEAN_MOTION_DDOT":0},{"OBJECT_NAME":"NOAA 19","OBJECT_ID":"2009-005A","EPOCH":"2026-03-10T03:50:29.092416","MEAN_MOTION":14.13456823,"ECCENTRICITY":0.0012875,"INCLINATION":98.9605,"RA_OF_ASC_NODE":139.9319,"ARG_OF_PERICENTER":313.3054,"MEAN_ANOMALY":46.7044,"EPHEMERIS_TYPE":0,"CLASSIFICATION_TYPE":"U","NORAD_CAT_ID":33591,"ELEMENT_SET_NO":999,"REV_AT_EPOCH":88049,"BSTAR":4.4568e-5,"MEAN_MOTION_DOT":3.9e-7,"MEAN_MOTION_DDOT":0},{"OBJECT_NAME":"SUOMI NPP","OBJECT_ID":"2011-061A","EPOCH":"2026-03-10T03:59:14.922816","MEAN_MOTION":14.19543815,"ECCENTRICITY":4.75e-5,"INCLINATION":98.787,"RA_OF_ASC_NODE":10.765,"ARG_OF_PERICENTER":225.8854,"MEAN_ANOMALY":134.2283,"EPHEMERIS_TYPE":0,"CLASSIFICATION_TYPE":"U","NORAD_CAT_ID":37849,"ELEMENT_SET_NO":999,"REV_AT_EPOCH":74439,"BSTAR":8.8497e-5,"MEAN_MOTION_DOT":1.42e-6,"MEAN_MOTION_DDOT":0},{"OBJECT_NAME":"NOAA 20 (JPSS-1)","OBJECT_ID":"2017-073A","EPOCH":"2026-03-10T02:38:53.023488","MEAN_MOTION":14.19536211,"ECCENTRICITY":0.000124,"INCLINATION":98.7692,"RA_OF_ASC_NODE":9.4933,"ARG_OF_PERICENTER":137.5857,"MEAN_ANOMALY":222.5415,"EPHEMERIS_TYPE":0,"CLASSIFICATION_TYPE":"U","NORAD_CAT_ID":43013,"ELEMENT_SET_NO":999,"REV_AT_EPOCH":43041,"BSTAR":6.9023e-5,"MEAN_MOTION_DOT":1.01e-6,"MEAN_MOTION_DDOT":0}]
