NOAA 18                 
1 28654U 05018A   26069.17878588  .00000060  00000+0  54841-4 0  9995
2 28654  98.8155 150.2792 0015276  74.1831 286.1024 14.13711009 72328
NOAA 19                 
1 33591U 09005A   26069.16005894  .00000039  00000+0  44568-4 0  9993
2 33591  98.9605 139.9319 0012875 313.3054  46.7044 14.13456823880498
SUOMI NPP               
1 37849U 11061A   26069.16614494  .00000142  00000+0  88497-4 0  9994
2 37849  98.7870  10.7650 0000475 225.8854 134.2283 14.19543815744392
NOAA 20 (JPSS-1)        
1 43013U 17073A   26069.11033592  .00000101  00000+0  69023-4 0  9991
2 43013  98.7692   9.4933 0001240 137.5857 222.5415 14.19536211430411
